{
  "type": "FeatureCollection",
  "features": [
    {
      "type": "Feature",
      "id": "mow.DE-MV-HGW-W005-20261005-000#1",
      "properties": {
        "warnId": "mow.DE-MV-HGW-W005-20261005-000",
        "strokeColor": "#F2C811",
        "strokeOpacity": 1.0,
        "strokeWeight": 1,
        "fillColor": "#F2C811",
        "fillOpacity": 0.4,
        "zIndex": 20,
        "FeatureID": "mow.DE-MV-HGW-W005-20261005-000#1",
        "WarnungID": "mow.DE-MV-HGW-W005-20261005-000",
        "Version": 20,
        "Titel": "BOMBENENTSCHÄRFUNG - Strand Seebad Ahlbeck",
        "Quelle": "MoWaS",
        "QuellEndpunkt": "mowas",
        "Eventcode": "BBK-EVC-079",
        "Kategorie": "Warnung",
        "Klassifizierung": "Eventcode",
        "Schweregrad": "Minor",
        "Dringlichkeit": "Immediate",
        "Meldungstyp": "Alert",
        "Beginn": "2026-10-05T08:25:15+02:00",
        "Ablauf": null,
        "MinLongitude": 14.193255,
        "MaxLongitude": 14.22628,
        "MinLatitude": 53.928659,
        "MaxLatitude": 53.942497,
        "color": "#F2C811",
        "strokeWidth": 2
      },
      "geometry": {
        "type": "MultiPolygon",
        "coordinates": [
          [
            [
              [
                14.193255,
                53.942497
              ],
              [
                14.193269,
                53.94249
              ],
              [
                14.193271,
                53.942488
              ],
              [
                14.193255,
                53.942497
              ]
            ]
          ],
          [
            [
              [
                14.225069,
                53.929095
              ],
              [
                14.225182,
                53.929062
              ],
              [
                14.22628,
                53.928659
              ],
              [
                14.226093,
                53.928704
              ],
              [
                14.225069,
                53.929095
              ]
            ]
          ]
        ]
      }
    }
  ]
}
